0 FLOCK 4S 21
1 47456U 21006AV  24020.71929248  .00031008  00000-0  78510-3 0  9991
2 47456  97.3595  84.7635 0007226  24.2896 335.8689 15.39662636166087
0 FLOCK 4S 11
1 47462U 21006BB  24020.67859139  .00020529  00000-0  87599-3 0  9997
2 47462  97.3606  75.5620 0008246  72.5016 287.7121 15.22906297165500
0 FLOCK 4S 33
1 47469U 21006BJ  24020.14793031  .00029247  00000-0  76447-3 0  9990
2 47469  97.3552  83.0309 0004303  39.6433 320.5126 15.38714777165960
0 FLOCK 4S 12
1 47471U 21006BL  24020.62076862  .00029341  00000-0  74529-3 0  9996
2 47471  97.3562  84.0500 0005989  45.5951 314.5785 15.39583329166042
0 FLOCK 4S 13
1 47472U 21006BM  24020.17492480  .00037198  00000-0  89950-3 0  9998
2 47472  97.3568  84.2172 0005399  39.3678 320.7960 15.41036494165994
0 FLOCK 4S 31
1 47475U 21006BQ  24020.16032876  .00064092  00000-0  97024-3 0  9993
2 47475  97.3536  87.8796 0003702  17.9288 342.2096 15.54453171166302
0 FLOCK 4S 34
1 47477U 21006BS  24020.11306600  .00030903  00000-0  79658-3 0  9996
2 47477  97.3592  83.7003 0005200  42.5807 317.5841 15.39127287165961
0 FLOCK 4S 9
1 47478U 21006BT  24020.62254844  .00027404  00000-0  72010-3 0  9992
2 47478  97.3562  83.3410 0005379  46.2772 313.8918 15.38559533166031
0 FLOCK 4S 39
1 47490U 21006CF  24020.59739274  .00036589  00000-0  92834-3 0  9997
2 47490  97.3652  84.9826 0006961  31.2821 328.8838 15.39566645166052
0 FLOCK 4S 4
1 47491U 21006CG  24020.16283328  .00031599  00000-0  82408-3 0  9997
2 47491  97.3508  82.7198 0006481  29.2499 330.9108 15.38756407165987
0 FLOCK 4S 17
1 47492U 21006CH  24020.61308228  .00033925  00000-0  86041-3 0  9997
2 47492  97.3683  85.1401 0007270  28.4355 331.7286 15.39592753166053
0 FLOCK 4S 27
1 47495U 21006CL  24020.15918201  .00027714  00000-0  78437-3 0  9996
2 47495  97.3495  81.4235 0007785  47.9076 312.2829 15.36236344165894
0 FLOCK 4S 18
1 47496U 21006CM  24020.15936528  .00029672  00000-0  77519-3 0  9994
2 47496  97.3644  84.3931 0007938  32.1172 328.0555 15.38704831165983
0 FLOCK 4S 19
1 47500U 21006CR  24020.14296226  .00028515  00000-0  74319-3 0  9993
2 47500  97.3624  84.3520 0007360  29.7767 330.3896 15.38790580165982
0 FLOCK 4S 28
1 47514U 21006DE  24020.70232858  .00031901  00000-0  82480-3 0  9992
2 47514  97.3531  83.1469 0005262  40.1485 320.0148 15.39027417167011
0 FLOCK 4S 5
1 47515U 21006DF  24020.62253715  .00029736  00000-0  75435-3 0  9994
2 47515  97.3524  83.1454 0007001  31.5162 328.6502 15.39614124166055
0 FLOCK 4S 6
1 47518U 21006DJ  24020.71231535  .00029951  00000-0  76793-3 0  9990
2 47518  97.3553  83.4285 0006310  39.0374 321.1326 15.39290915167034
0 FLOCK 4S 37
1 47522U 21006DN  24020.11458485  .00033067  00000-0  86170-3 0  9997
2 47522  97.3626  84.0044 0005333  43.0748 317.0914 15.38778440166932
0 FLOCK 4S 10
1 47523U 21006DP  24020.14461172  .00027043  00000-0  70513-3 0  9999
2 47523  97.3583  83.0848 0005885  45.3755 314.7970 15.38797430165969
0 FLOCK 4S 7
1 47527U 21006DT  24020.71548984  .00031077  00000-0  80942-3 0  9992
2 47527  97.3530  83.2246 0005479  42.3141 317.8526 15.38805650167017
0 FLOCK 4S 14
1 47528U 21006DU  24020.13319868  .00030734  00000-0  79940-3 0  9991
2 47528  97.3642  84.0316 0006060  38.9438 321.2242 15.38846648166921
0 FLOCK 4S 36
1 47530U 21006DW  24020.70290527  .00029994  00000-0  77598-3 0  9990
2 47530  97.3629  84.4921 0005671  45.2693 314.9014 15.39019263167019
0 FLOCK 4S 24
1 47539U 21006DZ  24020.59141273  .00027322  00000-0  71145-3 0  9994
2 47539  97.3558  83.8539 0006970  26.2570 333.9027 15.38829541166058
0 FLOCK 4S 20
1 47540U 21006EA  24020.14391051  .00028923  00000-0  75805-3 0  9993
2 47540  97.3625  84.2066 0006966  28.7068 331.4560 15.38618831165051
0 FLOCK 4S 25
1 47542U 21006EC  24020.62057375  .00035120  00000-0  88879-3 0  9998
2 47542  97.3512  83.6409 0007078  34.0051 326.1647 15.39652879165136
0 FLOCK 4S 1
1 47543U 21006ED  24020.60572764  .00034902  00000-0  83898-3 0  9994
2 47543  97.3535  84.0038 0006868  21.2832 338.8699 15.41220495165153
0 FLOCK 4S 30
1 47544U 21006EE  24020.70101265  .00025067  00000-0  65398-3 0  9997
2 47544  97.3548  83.4197 0005216  40.6134 319.5500 15.38798896167018
0 FLOCK 4S 42
1 47612U 21006EQ  24020.62672380  .00028077  00000-0  73186-3 0  9993
2 47612  97.3602  84.3317 0007032  37.3195 322.8538 15.38792359166056
0 FLOCK 4S 48
1 47617U 21006EJ  24020.12349385  .00028707  00000-0  74988-3 0  9990
2 47617  97.3598  83.9363 0007293  18.8806 341.2709 15.38720602166960
0 FLOCK 4S 46
1 47684U 21006EK  24020.61918203  .00037057  00000-0  95468-3 0  9993
2 47684  97.3626  84.3869 0006186  51.7697 308.4104 15.39101025166064
