OBJECT_NAME,OBJECT_ID,EPOCH,MEAN_MOTION,ECCENTRICITY,INCLINATION,RA_OF_ASC_NODE,ARG_OF_PERICENTER,MEAN_ANOMALY,EPHEMERIS_TYPE,CLASSIFICATION_TYPE,NORAD_CAT_ID,ELEMENT_SET_NO,REV_AT_EPOCH,BSTAR,MEAN_MOTION_DOT,MEAN_MOTION_DDOT
FLOCK 4S-21,2021-006AV,2024-01-20T17:15:46.870272,15.39662636,.0007226,97.3595,84.7635,24.2896,335.8689,0,U,47456,999,16608,.7851E-3,.31008E-3,0
FLOCK 4S-11,2021-006BB,2024-01-20T16:17:10.296096,15.22906297,.0008246,97.3606,75.5620,72.5016,287.7121,0,U,47462,999,16550,.87599E-3,.20529E-3,0
FLOCK 4S-33,2021-006BJ,2024-01-20T03:33:01.178784,15.38714777,.0004303,97.3552,83.0309,39.6433,320.5126,0,U,47469,999,16596,.76447E-3,.29247E-3,0
FLOCK 4S-12,2021-006BL,2024-01-20T14:53:54.408768,15.39583329,.0005989,97.3562,84.0500,45.5951,314.5785,0,U,47471,999,16604,.74529E-3,.29341E-3,0
FLOCK 4S-13,2021-006BM,2024-01-20T04:11:53.502720,15.41036494,.0005399,97.3568,84.2172,39.3678,320.7960,0,U,47472,999,16599,.8995E-3,.37198E-3,0
FLOCK 4S-31,2021-006BQ,2024-01-20T03:50:52.404864,15.54453171,.0003702,97.3536,87.8796,17.9288,342.2096,0,U,47475,999,16630,.97024E-3,.64092E-3,0
FLOCK 4S-34,2021-006BS,2024-01-20T02:42:48.902400,15.39127287,.00052,97.3592,83.7003,42.5807,317.5841,0,U,47477,999,16596,.79658E-3,.30903E-3,0
FLOCK 4S-9,2021-006BT,2024-01-20T14:56:28.185216,15.38559533,.0005379,97.3562,83.3410,46.2772,313.8918,0,U,47478,999,16603,.7201E-3,.27404E-3,0
FLOCK 4S-39,2021-006CF,2024-01-20T14:20:14.732736,15.39566645,.0006961,97.3652,84.9826,31.2821,328.8838,0,U,47490,999,16605,.92834E-3,.36589E-3,0
FLOCK 4S-4,2021-006CG,2024-01-20T03:54:28.795392,15.38756407,.0006481,97.3508,82.7198,29.2499,330.9108,0,U,47491,999,16598,.82408E-3,.31599E-3,0
FLOCK 4S-17,2021-006CH,2024-01-20T14:42:50.308992,15.39592753,.000727,97.3683,85.1401,28.4355,331.7286,0,U,47492,999,16605,.86041E-3,.33925E-3,0
FLOCK 4S-27,2021-006CL,2024-01-20T03:49:13.325664,15.36236344,.0007785,97.3495,81.4235,47.9076,312.2829,0,U,47495,999,16589,.78437E-3,.27714E-3,0
FLOCK 4S-18,2021-006CM,2024-01-20T03:49:29.160192,15.38704831,.0007938,97.3644,84.3931,32.1172,328.0555,0,U,47496,999,16598,.77519E-3,.29672E-3,0
FLOCK 4S-19,2021-006CR,2024-01-20T03:25:51.939264,15.38790580,.000736,97.3624,84.3520,29.7767,330.3896,0,U,47500,999,16598,.74319E-3,.28515E-3,0
FLOCK 4S-28,2021-006DE,2024-01-20T16:51:21.189312,15.39027417,.0005262,97.3531,83.1469,40.1485,320.0148,0,U,47514,999,16701,.8248E-3,.31901E-3,0
FLOCK 4S-5,2021-006DF,2024-01-20T14:56:27.209760,15.39614124,.0007001,97.3524,83.1454,31.5162,328.6502,0,U,47515,999,16605,.75435E-3,.29736E-3,0
FLOCK 4S-6,2021-006DJ,2024-01-20T17:05:44.046240,15.39290915,.000631,97.3553,83.4285,39.0374,321.1326,0,U,47518,999,16703,.76793E-3,.29951E-3,0
FLOCK 4S-37,2021-006DN,2024-01-20T02:45:00.131040,15.38778440,.0005333,97.3626,84.0044,43.0748,317.0914,0,U,47522,999,16693,.8617E-3,.33067E-3,0
FLOCK 4S-10,2021-006DP,2024-01-20T03:28:14.452608,15.38797430,.0005885,97.3583,83.0848,45.3755,314.7970,0,U,47523,999,16596,.70513E-3,.27043E-3,0
FLOCK 4S-7,2021-006DT,2024-01-20T17:10:18.322176,15.38805650,.0005479,97.3530,83.2246,42.3141,317.8526,0,U,47527,999,16701,.80942E-3,.31077E-3,0
FLOCK 4S-14,2021-006DU,2024-01-20T03:11:48.365952,15.38846648,.000606,97.3642,84.0316,38.9438,321.2242,0,U,47528,999,16692,.7994E-3,.30734E-3,0
FLOCK 4S-36,2021-006DW,2024-01-20T16:52:11.015328,15.39019263,.0005671,97.3629,84.4921,45.2693,314.9014,0,U,47530,999,16701,.77598E-3,.29994E-3,0
FLOCK 4S-24,2021-006DZ,2024-01-20T14:11:38.059872,15.38829541,.000697,97.3558,83.8539,26.2570,333.9027,0,U,47539,999,16605,.71145E-3,.27322E-3,0
FLOCK 4S-20,2021-006EA,2024-01-20T03:27:13.868064,15.38618831,.0006966,97.3625,84.2066,28.7068,331.4560,0,U,47540,999,16505,.75805E-3,.28923E-3,0
FLOCK 4S-25,2021-006EC,2024-01-20T14:53:37.572000,15.39652879,.0007078,97.3512,83.6409,34.0051,326.1647,0,U,47542,999,16513,.88879E-3,.3512E-3,0
FLOCK 4S-1,2021-006ED,2024-01-20T14:32:14.868096,15.41220495,.0006868,97.3535,84.0038,21.2832,338.8699,0,U,47543,999,16515,.83898E-3,.34902E-3,0
FLOCK 4S-30,2021-006EE,2024-01-20T16:49:27.492960,15.38798896,.0005216,97.3548,83.4197,40.6134,319.5500,0,U,47544,999,16701,.65398E-3,.25067E-3,0
FLOCK 4S-42,2021-006EQ,2024-01-20T15:02:28.936320,15.38792359,.0007032,97.3602,84.3317,37.3195,322.8538,0,U,47612,999,16605,.73186E-3,.28077E-3,0
FLOCK 4S-48,2021-006EJ,2024-01-20T02:57:49.868640,15.38720602,.0007293,97.3598,83.9363,18.8806,341.2709,0,U,47617,999,16696,.74988E-3,.28707E-3,0
FLOCK 4S-46,2021-006EK,2024-01-20T14:51:37.327392,15.39101025,.0006186,97.3626,84.3869,51.7697,308.4104,0,U,47684,999,16606,.95468E-3,.37057E-3,0
